{
    "links": {
        "self": "http://www.neowsapp.com/rest/v1/neo/3376342?api_key=iIulBulltgU6a56xZRHN4H3l9WmuAYTsLGpBGhQ2"
    },
    "id": "3376342",
    "neo_reference_id": "3376342",
    "name": "(2007 JF16)",
    "designation": "2007 JF16",
    "nasa_jpl_url": "http://ssd.jpl.nasa.gov/sbdb.cgi?sstr=3376342",
    "absolute_magnitude_h": 18.7,
    "estimated_diameter": {
        "kilometers": {
            "estimated_diameter_min": 0.4836764882,
            "estimated_diameter_max": 1.0815335068
        },
        "meters": {
            "estimated_diameter_min": 483.6764882185,
            "estimated_diameter_max": 1081.533506775
        },
        "miles": {
            "estimated_diameter_min": 0.3005425432,
            "estimated_diameter_max": 0.6720335566
        },
        "feet": {
            "estimated_diameter_min": 1586.8651696069,
            "estimated_diameter_max": 3548.3383903678
        }
    },
    "is_potentially_hazardous_asteroid": false,
    "close_approach_data": [
        {
            "close_approach_date": "2006-10-17",
            "close_approach_date_full": "2006-Oct-17 01:37",
            "epoch_date_close_approach": 1161049020000,
            "relative_velocity": {
                "kilometers_per_second": "34.4450442027",
                "kilometers_per_hour": "124002.1591298143",
                "miles_per_hour": "77050.1193770782"
            },
            "miss_distance": {
                "astronomical": "0.3240996511",
                "lunar": "126.0747642779",
                "kilometers": "48484617.472303157",
                "miles": "30126944.2923192866"
            },
            "orbiting_body": "Earth"
        }
    ],
    "orbital_data": {
        "orbit_id": "9",
        "orbit_determination_date": "2017-04-06 09:06:28",
        "first_observation_date": "2007-05-10",
        "last_observation_date": "2007-05-24",
        "data_arc_in_days": 14,
        "observations_used": 22,
        "orbit_uncertainty": "9",
        "minimum_orbit_intersection": ".247065",
        "jupiter_tisserand_invariant": "3.217",
        "epoch_osculation": "2454234.5",
        "eccentricity": ".6779795391753203",
        "semi_major_axis": "2.032892227987664",
        "inclination": "44.33910349520098",
        "ascending_node_longitude": "225.5989408241009",
        "orbital_period": "1058.69280147194",
        "perihelion_distance": ".6546328920634975",
        "perihelion_argument": "221.2107677055969",
        "aphelion_distance": "3.411151563911831",
        "perihelion_time": "2454050.603250587611",
        "mean_anomaly": "62.5326154068638",
        "mean_motion": ".3400419833774997",
        "equinox": "J2000",
        "orbit_class": {
            "orbit_class_type": "APO",
            "orbit_class_description": "Near-Earth asteroid orbits which cross the Earth’s orbit similar to that of 1862 Apollo",
            "orbit_class_range": "a (semi-major axis) > 1.0 AU; q (perihelion) < 1.017 AU"
        }
    },
    "is_sentry_object": false
}